GSAT0101 (PRN E11)      
1 37846U 11060A   22074.98419055 -.00000069  00000+0  00000+0 0  9996
2 37846  56.9635  23.8772 0004124 351.9716   8.0037  1.70475084 64628
GSAT0102 (PRN E12)      
1 37847U 11060B   22075.09826889 -.00000069  00000+0  00000+0 0  9997
2 37847  56.9643  23.8737 0005316 330.2485 146.2859  1.70475405 64631
GSAT0103 (PRN E19)      
1 38857U 12055A   22073.26470750  .00000006  00000+0  00000+0 0  9993
2 38857  55.1084 144.3158 0004415 258.4770 101.5348  1.70473723 58480
GSAT0104 (PRN E20)      
1 38858U 12055B   22074.99475085  .00000018  00000+0  00000+0 0  9994
2 38858  55.1089 144.2695 0002095 248.7502 111.3002  1.70473955 58515
GSAT0201 (PRN E18)      
1 40128U 14050A   22074.96236035 -.00000067  00000+0  00000+0 0  9996
2 40128  50.3392 336.0085 1630347 120.6758 256.3976  1.85519294 49484
GSAT0202 (PRN E14)      
1 40129U 14050B   22075.22369932 -.00000065  00000+0  00000+0 0  9998
2 40129  50.3654 335.0558 1627409 121.4924 255.4312  1.85519947 51650
GSAT0203 (PRN E26)      
1 40544U 15017A   22074.76524670 -.00000070  00000+0  00000+0 0  9999
2 40544  56.7588  23.9291 0004078 284.1068  75.8302  1.70475776 42704
GSAT0204 (PRN E22)      
1 40545U 15017B   22075.01788420 -.00000070  00000+0  00000+0 0  9994
2 40545  56.7644  23.9343 0003273 274.0936  85.8511  1.70475548  5758
GSAT0205 (PRN E24)      
1 40889U 15045A   22073.61188067  .00000051  00000+0  00000+0 0  9999
2 40889  55.6875 264.5798 0006063  28.9098 331.1363  1.70473515 40499
GSAT0206 (PRN E30)      
1 40890U 15045B   22075.00582355  .00000049  00000+0  00000+0 0  9991
2 40890  55.6855 264.5372 0004181  26.4923 333.5355  1.70473529 40544
GSAT0209 (PRN E09)      
1 41174U 15079A   22075.18102984  .00000020  00000+0  00000+0 0  9998
2 41174  55.1249 143.9658 0004318 301.8631  58.1696  1.70474257 38282
GSAT0208 (PRN E08)      
1 41175U 15079B   22075.40047860  .00000022  00000+0  00000+0 0  9997
2 41175  55.1234 143.9584 0003592 299.6365  60.4039  1.70475029 38865
GSAT0211 (PRN E02)      
1 41549U 16030A   22074.93336880  .00000050  00000+0  00000+0 0  9991
2 41549  55.8304 264.4623 0004060 359.3844   0.6219  1.70474972 36179
GSAT0210 (PRN E01)      
1 41550U 16030B   22075.22604742  .00000049  00000+0  00000+0 0  9999
2 41550  55.8302 264.4557 0002241 339.0854  20.9106  1.70475135 36172
GSAT0207 (PRN E07)      
1 41859U 16069A   22074.88687788  .00000017  00000+0  00000+0 0  9990
2 41859  54.7848 144.1782 0004550 287.9303  72.0922  1.70473669 32907
GSAT0212 (PRN E03)      
1 41860U 16069B   22075.32687940  .00000020  00000+0  00000+0 0  9996
2 41860  54.7827 144.1638 0003014 308.7017  51.3464  1.70473692 33160
GSAT0213 (PRN E04)      
1 41861U 16069C   22073.93258395  .00000010  00000+0  00000+0 0  9999
2 41861  54.7847 144.2075 0004384 266.2982  93.7171  1.70473731 33001
GSAT0214 (PRN E05)      
1 41862U 16069D   22075.25284419  .00000020  00000+0  00000+0 0  9994
2 41862  54.7833 144.1655 0003504 268.8972  91.1372  1.70473819 33158
GSAT0215 (PRN E21)      
1 43055U 17079A   22074.57041273  .00000051  00000+0  00000+0 0  9999
2 43055  55.8065 264.3062 0001689 348.7059  11.2986  1.70474249 26486
GSAT0216 (PRN E25)      
1 43056U 17079B   22074.86270270  .00000050  00000+0  00000+0 0  9992
2 43056  55.8067 264.2979 0002869 314.5340  45.4493  1.70474366 26505
GSAT0217 (PRN E27)      
1 43057U 17079C   22075.08291670  .00000050  00000+0  00000+0 0  9995
2 43057  55.8041 264.2917 0003099 334.3516  25.6386  1.70474276 26490
GSAT0218 (PRN E31)      
1 43058U 17079D   22073.54318089  .00000052  00000+0  00000+0 0  9991
2 43058  55.8058 264.3314 0003047 304.6830  55.3005  1.70474347 26490
GSAT0221 (PRN E15)      
1 43564U 18060A   22075.20098290 -.00000069  00000+0  00000+0 0  9997
2 43564  57.1416  23.7091 0005031 296.3486  63.5816  1.70475575 22674
GSAT0222 (PRN E33)      
1 43565U 18060B   22074.24765934 -.00000070  00000+0  00000+0 0  9999
2 43565  57.1435  23.7351 0004921 304.0984  55.8373  1.70475574 22707
GSAT0219 (PRN E36)      
1 43566U 18060C   22075.05481604 -.00000069  00000+0  00000+0 0  9997
2 43566  57.1443  23.7153 0004592 306.3914  53.5482  1.70475570 22699
GSAT0220 (PRN E13)      
1 43567U 18060D   22074.68827400 -.00000070  00000+0  00000+0 0  9996
2 43567  57.1444  23.7260 0004713 301.1296  58.8063  1.70475592 22676
GSAT0223                
1 49809U 21116A   22075.41311851 -.00000069  00000+0  00000+0 0  9995
2 49809  57.1374  23.6052 0001492 273.3408 261.3939  1.70475739  1692
GSAT0224                
1 49810U 21116B   22075.22504541 -.00000069  00000+0  00000+0 0  9996
2 49810  57.1375  23.6083 0001286 303.4510 228.3488  1.70475689  1718
